{
  "type": "FeatureCollection",
  "features": [
    {
      "type": "Feature",
      "properties": {
        "norad_id": 34036,
        "name": "COSMOS 2251 DEB",
        "group": "cosmos-2251-debris",
        "lat": 26.304123209389402,
        "lon": 174.12381047681953,
        "alt_km": 594.8358178036697,
        "timestamp": "2025-12-04T10:51:50.499471+00:00",
        "meta_object_name": "COSMOS 2251 DEB",
        "meta_object_id": "1993-036HX",
        "meta_epoch": "2025-12-03T15:27:13.917312",
        "meta_mean_motion": 14.93800891,
        "meta_eccentricity": 0.00148465,
        "meta_inclination": 74.0198,
        "meta_ra_of_asc_node": 167.609,
        "meta_arg_of_pericenter": 201.8914,
        "meta_mean_anomaly": 158.1638,
        "meta_ephemeris_type": 0,
        "meta_classification_type": "U",
        "meta_norad_cat_id": 34036,
        "meta_element_set_no": 999,
        "meta_rev_at_epoch": 88434,
        "meta_bstar": 0.0048127428,
        "meta_mean_motion_dot": 0.00051513,
        "meta_mean_motion_ddot": 0,
        "tle_line1": "1 34036U 93036HX  25337.64391108  .00051513  00000+0  48127-2 0  9997",
        "tle_line2": "2 34036  74.0198 167.6090 0014846 201.8914 158.1638 14.93800891884346"
      },
      "geometry": {
        "type": "Point",
        "coordinates": [
          174.12381047681953,
          26.304123209389402
        ]
      }
    },
    {
      "type": "Feature",
      "properties": {
        "norad_id": 34037,
        "name": "COSMOS 2251 DEB",
        "group": "cosmos-2251-debris",
        "lat": 64.07591659556859,
        "lon": 101.64135125376325,
        "alt_km": 744.9172465779639,
        "timestamp": "2025-12-04T10:51:50.499481+00:00",
        "meta_object_name": "COSMOS 2251 DEB",
        "meta_object_id": "1993-036HY",
        "meta_epoch": "2025-12-03T07:45:54.663840",
        "meta_mean_motion": 14.34620684,
        "meta_eccentricity": 0.0052422,
        "meta_inclination": 74.0527,
        "meta_ra_of_asc_node": 67.6752,
        "meta_arg_of_pericenter": 120.5363,
        "meta_mean_anomaly": 240.0978,
        "meta_ephemeris_type": 0,
        "meta_classification_type": "U",
        "meta_norad_cat_id": 34037,
        "meta_element_set_no": 999,
        "meta_rev_at_epoch": 87582,
        "meta_bstar": 0.00082651,
        "meta_mean_motion_dot": 2.348e-05,
        "meta_mean_motion_ddot": 0,
        "tle_line1": "1 34037U 93036HY  25337.32354935  .00002348  00000+0  82651-3 0  9993",
        "tle_line2": "2 34037  74.0527  67.6752 0052422 120.5363 240.0978 14.34620684875820"
      },
      "geometry": {
        "type": "Point",
        "coordinates": [
          101.64135125376325,
          64.07591659556859
        ]
      }
    },
    {
      "type": "Feature",
      "properties": {
        "norad_id": 34040,
        "name": "COSMOS 2251 DEB",
        "group": "cosmos-2251-debris",
        "lat": 38.98288781494007,
        "lon": -113.91079023489067,
        "alt_km": 1056.7582237043343,
        "timestamp": "2025-12-04T10:51:50.499491+00:00",
        "meta_object_name": "COSMOS 2251 DEB",
        "meta_object_id": "1993-036JB",
        "meta_epoch": "2025-12-03T23:41:20.420160",
        "meta_mean_motion": 13.68361466,
        "meta_eccentricity": 0.0342834,
        "meta_inclination": 73.9556,
        "meta_ra_of_asc_node": 80.325,
        "meta_arg_of_pericenter": 35.5129,
        "meta_mean_anomaly": 326.8289,
        "meta_ephemeris_type": 0,
        "meta_classification_type": "U",
        "meta_norad_cat_id": 34040,
        "meta_element_set_no": 999,
        "meta_rev_at_epoch": 83480,
        "meta_bstar": 0.00058612,
        "meta_mean_motion_dot": 7.34e-06,
        "meta_mean_motion_ddot": 0,
        "tle_line1": "1 34040U 93036JB  25337.98704190  .00000734  00000+0  58612-3 0  9998",
        "tle_line2": "2 34040  73.9556  80.3250 0342834  35.5129 326.8289 13.68361466834800"
      },
      "geometry": {
        "type": "Point",
        "coordinates": [
          -113.91079023489067,
          38.98288781494007
        ]
      }
    },
    {
      "type": "Feature",
      "properties": {
        "norad_id": 34045,
        "name": "COSMOS 2251 DEB",
        "group": "cosmos-2251-debris",
        "lat": 45.48569145695778,
        "lon": 129.07305296780086,
        "alt_km": 770.6959457569374,
        "timestamp": "2025-12-04T10:51:50.499501+00:00",
        "meta_object_name": "COSMOS 2251 DEB",
        "meta_object_id": "1993-036JG",
        "meta_epoch": "2025-12-03T09:53:33.191808",
        "meta_mean_motion": 14.34060223,
        "meta_eccentricity": 0.00253485,
        "meta_inclination": 74.0386,
        "meta_ra_of_asc_node": 327.8996,
        "meta_arg_of_pericenter": 54.2394,
        "meta_mean_anomaly": 108.0917,
        "meta_ephemeris_type": 0,
        "meta_classification_type": "U",
        "meta_norad_cat_id": 34045,
        "meta_element_set_no": 999,
        "meta_rev_at_epoch": 87899,
        "meta_bstar": 0.00014334052,
        "meta_mean_motion_dot": 3.76e-06,
        "meta_mean_motion_ddot": 0,
        "tle_line1": "1 34045U 93036JG  25337.41218972  .00000376  00000+0  14334-3 0  9994",
        "tle_line2": "2 34045  74.0386 327.8996 0025348  54.2394 108.0917 14.34060223878991"
      },
      "geometry": {
        "type": "Point",
        "coordinates": [
          129.07305296780086,
          45.48569145695778
        ]
      }
    },
    {
      "type": "Feature",
      "properties": {
        "norad_id": 34046,
        "name": "COSMOS 2251 DEB",
        "group": "cosmos-2251-debris",
        "lat": 62.76006734530376,
        "lon": 172.17600755346328,
        "alt_km": 677.8153075661894,
        "timestamp": "2025-12-04T10:51:50.499512+00:00",
        "meta_object_name": "COSMOS 2251 DEB",
        "meta_object_id": "1993-036JH",
        "meta_epoch": "2025-12-03T04:43:41.841120",
        "meta_mean_motion": 14.46341993,
        "meta_eccentricity": 0.0074888,
        "meta_inclination": 74.0404,
        "meta_ra_of_asc_node": 28.2895,
        "meta_arg_of_pericenter": 114.54,
        "meta_mean_anomaly": 302.4126,
        "meta_ephemeris_type": 0,
        "meta_classification_type": "U",
        "meta_norad_cat_id": 34046,
        "meta_element_set_no": 999,
        "meta_rev_at_epoch": 87688,
        "meta_bstar": 0.0015494,
        "meta_mean_motion_dot": 5.733e-05,
        "meta_mean_motion_ddot": 0,
        "tle_line1": "1 34046U 93036JH  25337.19701205  .00005733  00000+0  15494-2 0  9995",
        "tle_line2": "2 34046  74.0404  28.2895 0074888 114.5400 302.4126 14.46341993876881"
      },
      "geometry": {
        "type": "Point",
        "coordinates": [
          172.17600755346328,
          62.76006734530376
        ]
      }
    },
    {
      "type": "Feature",
      "properties": {
        "norad_id": 34050,
        "name": "COSMOS 2251 DEB",
        "group": "cosmos-2251-debris",
        "lat": 42.302810749631064,
        "lon": 39.31273878172086,
        "alt_km": 793.3376685110061,
        "timestamp": "2025-12-04T10:51:50.499522+00:00",
        "meta_object_name": "COSMOS 2251 DEB",
        "meta_object_id": "1993-036JM",
        "meta_epoch": "2025-12-04T04:04:00.143904",
        "meta_mean_motion": 13.96159696,
        "meta_eccentricity": 0.0214655,
        "meta_inclination": 74.0887,
        "meta_ra_of_asc_node": 24.7531,
        "meta_arg_of_pericenter": 91.2655,
        "meta_mean_anomaly": 332.017,
        "meta_ephemeris_type": 0,
        "meta_classification_type": "U",
        "meta_norad_cat_id": 34050,
        "meta_element_set_no": 999,
        "meta_rev_at_epoch": 85312,
        "meta_bstar": 0.00094414,
        "meta_mean_motion_dot": 1.553e-05,
        "meta_mean_motion_ddot": 0,
        "tle_line1": "1 34050U 93036JM  25338.16944611  .00001553  00000+0  94414-3 0  9994",
        "tle_line2": "2 34050  74.0887  24.7531 0214655  91.2655 332.0170 13.96159696853121"
      },
      "geometry": {
        "type": "Point",
        "coordinates": [
          39.31273878172086,
          42.302810749631064
        ]
      }
    },
    {
      "type": "Feature",
      "properties": {
        "norad_id": 34053,
        "name": "COSMOS 2251 DEB",
        "group": "cosmos-2251-debris",
        "lat": -23.31478728209205,
        "lon": -111.65175903096967,
        "alt_km": 959.8414933435797,
        "timestamp": "2025-12-04T10:51:50.499532+00:00",
        "meta_object_name": "COSMOS 2251 DEB",
        "meta_object_id": "1993-036JQ",
        "meta_epoch": "2025-12-03T20:44:33.400608",
        "meta_mean_motion": 13.49137758,
        "meta_eccentricity": 0.04217165,
        "meta_inclination": 73.8444,
        "meta_ra_of_asc_node": 256.4723,
        "meta_arg_of_pericenter": 46.5121,
        "meta_mean_anomaly": 317.024,
        "meta_ephemeris_type": 0,
        "meta_classification_type": "U",
        "meta_norad_cat_id": 34053,
        "meta_element_set_no": 999,
        "meta_rev_at_epoch": 82564,
        "meta_bstar": 0.0011157709,
        "meta_mean_motion_dot": 1.194e-05,
        "meta_mean_motion_ddot": 0,
        "tle_line1": "1 34053U 93036JQ  25337.86427547  .00001194  00000+0  11158-2 0  9991",
        "tle_line2": "2 34053  73.8444 256.4723 0421716  46.5121 317.0240 13.49137758825646"
      },
      "geometry": {
        "type": "Point",
        "coordinates": [
          -111.65175903096967,
          -23.31478728209205
        ]
      }
    }
  ]
}